0 FENGYUN 1C DEB
1 29787U 99025CD  13282.20309620  .00030235  00000-0  52381-2 0  1015
2 29787 099.0679 098.2749 0109441 296.9926 118.1483 14.64320696354702
0 FENGYUN 1C DEB
1 29787U 99025CD  13283.16147733  .00025905  00000-0  44881-2 0  1021
2 29787 099.0677 099.3299 0109369 294.0483 130.3947 14.64364344354842
0 FENGYUN 1C DEB
1 29787U 99025CD  13283.76400900  .00040408  00000-0  70062-2 0  1042
2 29787 099.0673 099.9910 0109202 292.1991 066.8135 14.64401084354938
0 FENGYUN 1C DEB
1 29787U 99025CD  13284.18403407  .00025754  00000-0  44585-2 0  1031
2 29787 099.0675 100.4557 0109337 290.9478 121.0708 14.64401400354998
0 FENGYUN 1C DEB
1 29787U 99025CD  13285.48212556  .00023034  00000-0  39861-2 0  1049
2 29787 099.0672 101.8852 0109255 286.9767 124.5434 14.64453449355189
0 FENGYUN 1C DEB
1 29787U 99025CD  13286.79545804  .00024837  00000-0  42911-2 0  1052
2 29787 099.0668 103.3310 0109214 283.0180 208.5671 14.64507282355374
0 FENGYUN 1C DEB
1 29787U 99025CD  13288.14919625  .00044496  00000-0  76466-2 0  1065
2 29787 099.0663 104.8221 0109074 278.9682 145.8735 14.64584312355575
0 FENGYUN 1C DEB
1 29787U 99025CD  13289.17177659  .00036930  00000-0  63465-2 0  1072
2 29787 099.0661 105.9486 0108962 275.8400 137.5689 14.64648390355727
0 FENGYUN 1C DEB
1 29787U 99025CD  13289.80127375  .00038358  00000-0  65869-2 0  1089
2 29787 099.0661 106.6417 0108886 273.8858 216.8076 14.64675704355819
0 FENGYUN 1C DEB
1 29787U 99025CD  13290.46346730  .00037251  00000-0  63932-2 0  1092
2 29787 099.0659 107.3716 0108820 271.9164 108.4437 14.64712365355905
0 FENGYUN 1C DEB
1 29787U 99025CD  13291.49579862  .00033432  00000-0  57346-2 0  1101
2 29787 099.0664 108.5083 0108777 268.8385 151.9502 14.64770957356067
0 FENGYUN 1C DEB
1 29787U 99025CD  13293.01090810  .00030350  00000-0  51995-2 0  1113
2 29787 099.0665 110.1777 0108542 264.2107 221.6650 14.64866355356280
0 FENGYUN 1C DEB
1 29787U 99025CD  13294.22666969  .00038908  00000-0  66467-2 0  1129
2 29787 099.0667 111.5172 0108392 260.5967 153.0728 14.64930032356460
0 FENGYUN 1C DEB
1 29787U 99025CD  13295.45571957  .00043097  00000-0  73458-2 0  1131
2 29787 099.0668 112.8718 0108205 256.8743 154.9360 14.65008763356644
